[{"OBJECT_NAME":"STARLINK-5742","OBJECT_ID":"2023-020Q","EPOCH":"2026-03-09T22:00:01.999584","MEAN_MOTION":15.14945834,"ECCENTRICITY":7.796e-5,"INCLINATION":43.0014,"RA_OF_ASC_NODE":3.0271,"ARG_OF_PERICENTER":260.1747,"MEAN_ANOMALY":254.0226,"EPHEMERIS_TYPE":0,"CLASSIFICATION_TYPE":"U","NORAD_CAT_ID":55583,"ELEMENT_SET_NO":999,"REV_AT_EPOCH":577,"BSTAR":0.063095573,"MEAN_MOTION_DOT":0.01298259,"MEAN_MOTION_DDOT":0},{"OBJECT_NAME":"MBZ-SAT","OBJECT_ID":"2025-009T","EPOCH":"2026-03-09T17:04:51.088224","MEAN_MOTION":15.18507845,"ECCENTRICITY":0.00021634,"INCLINATION":97.403,"RA_OF_ASC_NODE":149.1701,"ARG_OF_PERICENTER":323.4829,"MEAN_ANOMALY":36.6257,"EPHEMERIS_TYPE":0,"CLASSIFICATION_TYPE":"U","NORAD_CAT_ID":62626,"ELEMENT_SET_NO":999,"REV_AT_EPOCH":6359,"BSTAR":3.31466e-7,"MEAN_MOTION_DOT":-5.9e-7,"MEAN_MOTION_DDOT":0}]
